GLOBALSTAR M063         
1 26081U 00008A   25250.76561360 -.00000069  00000+0  19849-3 0  9992
2 26081  51.9930 254.0913 0004595 114.4883  56.5287 11.86175874167377
GLOBALSTAR M062         
1 26082U 00008B   25250.61862657 -.00000094  00000+0  27802-4 0  9997
2 26082  51.9830 213.3752 0007056 290.3513 240.5241 12.43471700506873
GLOBALSTAR M060         
1 26083U 00008C   25250.97428216 -.00000021  00000+0  69608-3 0  9995
2 26083  52.0007 184.0490 0003303 301.4806 136.2246 12.17665974162452
GLOBALSTAR M064         
1 26084U 00008D   25250.56097369 -.00000067  00000+0  22605-3 0  9998
2 26084  52.0064 352.4863 0001468 191.7402 168.3397 11.88535662176896
GLOBALSTAR M065         
1 31571U 07020A   25250.52805819 -.00000091  00000+0  73664-4 0  9998
2 31571  51.9918 335.6484 0010633 129.7771 352.5323 12.62010403843807
GLOBALSTAR M069         
1 31573U 07020C   25250.95381465 -.00000059  00000+0  30660-3 0  9995
2 31573  52.0060 330.9538 0001120 284.7842 248.2399 12.23461677844253
GLOBALSTAR M072         
1 31574U 07020D   25250.95433462 -.00000051  00000+0  44864-3 0  9994
2 31574  51.9917 131.6245 0001556  98.9918 272.6708 11.91651487841331
GLOBALSTAR M071         
1 31576U 07020F   25250.57423950 -.00000130  00000+0 -38592-3 0  9995
2 31576  52.0091 359.9679 0000258 226.3068 146.6911 12.18257851504985
